STARLINK-1333           
1 45580U 20025BB  26068.30145996  .00007828  00000+0  27594-3 0  9994
2 45580  53.1603  79.6121 0001218  85.9757 274.1383 15.30221934325447
2025-313BD              
1 67299U 25313BD  26068.62968741  .00081010  00000+0  27634-2 0  9995
2 67299  97.3970 145.2850 0007287 333.4514  26.6352 15.30002360 10838
